GSAT0101 (PRN E11)      
1 37846U 11060A   23166.93479295 -.00000096  00000+0  00000+0 0  9996
2 37846  57.0952  11.4727 0003915  48.1266 311.9510  1.70476074 72415
GSAT0102 (PRN E12)      
1 37847U 11060B   23169.50049637 -.00000095  00000+0  00000+0 0  9995
2 37847  57.0965  11.4031 0003397  16.1063 165.0464  1.70475535 72464
GSAT0103 (PRN E19)      
1 38857U 12055A   23168.73331230  .00000009  00000+0  00000+0 0  9993
2 38857  55.2579 131.6542 0005381 274.4408  85.4372  1.70473717 66338
GSAT0104 (PRN E20)      
1 38858U 12055B   23168.11630401  .00000010  00000+0  00000+0 0  9990
2 38858  55.2577 131.6726 0002870 277.3541  82.5542  1.70473941 66326
GSAT0201 (PRN E18)      
1 40128U 14050A   23169.72766623 -.00000112  00000+0  00000+0 0  9998
2 40128  50.0059 317.6692 1611826 137.4046 236.3135  1.85519205 58013
GSAT0202 (PRN E14)      
1 40129U 14050B   23170.52632109 -.00000106  00000+0  00000+0 0  9993
2 40129  50.0253 316.7073 1609485 138.2473 235.2479  1.85519886 60190
GSAT0203 (PRN E26)      
1 40544U 15017A   23169.64726228 -.00000095  00000+0  00000+0 0  9992
2 40544  56.8915  11.3829 0000943 256.9267 103.1035  1.70476013 50546
GSAT0204 (PRN E22)      
1 40545U 15017B   23169.90070043 -.00000095  00000+0  00000+0 0  9999
2 40545  56.8977  11.3899 0001151 194.7585 165.2785  1.70475757 13595
GSAT0205 (PRN E24)      
1 40889U 15045A   23169.66866468  .00000002  00000+0  00000+0 0  9995
2 40889  55.4016 251.8447 0003247  19.3277 340.7574  1.70474022 48355
GSAT0206 (PRN E30)      
1 40890U 15045B   23166.95641293 -.00000007  00000+0  00000+0 0  9999
2 40890  55.4024 251.9152 0001543 359.2203   0.8349  1.70474006 48336
GSAT0209 (PRN E09)      
1 41174U 15079A   23170.06087559  .00000011  00000+0  00000+0 0  9992
2 41174  55.2758 131.3240 0005229 309.1896  50.7032  1.70474232 46129
GSAT0208 (PRN E08)      
1 41175U 15079B   23170.28045341  .00000011  00000+0  00000+0 0  9990
2 41175  55.2744 131.3161 0004540 308.0898  51.8089  1.70474223 46542
GSAT0211 (PRN E02)      
1 41549U 16030A   23170.40162612  .00000003  00000+0  00000+0 0  9999
2 41549  55.5477 251.7921 0002587 318.1513  41.9048  1.70474033 44024
GSAT0210 (PRN E01)      
1 41550U 16030B   23169.52000150  .00000002  00000+0  00000+0 0  9999
2 41550  55.5474 251.8176 0003107 268.2249  91.8116  1.70473973 44006
GSAT0207 (PRN E07)      
1 41859U 16069A   23169.18160800  .00000008  00000+0  00000+0 0  9990
2 41859  54.9378 131.4392 0005523 296.9458  62.9367  1.70474196 40956
GSAT0212 (PRN E03)      
1 41860U 16069B   23170.20953360  .00000011  00000+0  00000+0 0  9992
2 41860  54.9358 131.4078 0003982 317.4523  42.4563  1.70474397 41007
GSAT0213 (PRN E04)      
1 41861U 16069C   23169.98841932  .00000010  00000+0  00000+0 0  9996
2 41861  54.9381 131.4197 0005330 280.5604  79.3187  1.70473023 40864
GSAT0214 (PRN E05)      
1 41862U 16069D   23170.13558764  .00000010  00000+0  00000+0 0  9994
2 41862  54.9364 131.4097 0004380 284.2048  75.6860  1.70472941 40991
GSAT0215 (PRN E21)      
1 43055U 17079A   23169.45213940  .00000002  00000+0  00000+0 0  9990
2 43055  55.5242 251.6451 0002484 259.5133 100.5308  1.70474757 34323
GSAT0216 (PRN E25)      
1 43056U 17079B   23169.74411558  .00000003  00000+0  00000+0 0  9999
2 43056  55.5242 251.6371 0005451 268.1765  91.8347  1.70474742 34340
GSAT0217 (PRN E27)      
1 43057U 17079C   23170.55103347  .00000003  00000+0  00000+0 0  9995
2 43057  55.5222 251.6140 0003343 283.9402  76.0992  1.70474857 34342
GSAT0218 (PRN E31)      
1 43058U 17079D   23168.42473458  .00000000  00000+0  00000+0 0  9999
2 43058  55.5229 251.6702 0004686 266.9375  93.0750  1.70474839 34335
GSAT0221 (PRN E15)      
1 43564U 18060A   23170.08391503 -.00000094  00000+0  00000+0 0  9991
2 43564  57.2723  11.2796 0001504 319.3688  40.6601  1.70475866 30514
GSAT0222 (PRN E33)      
1 43565U 18060B   23169.13064901 -.00000095  00000+0  00000+0 0  9996
2 43565  57.2742  11.3061 0001876 332.8894  27.1425  1.70475768 30541
GSAT0219 (PRN E36)      
1 43566U 18060C   23167.59139714 -.00000096  00000+0  00000+0 0  9991
2 43566  57.2744  11.3497 0001662 342.7313  17.3068  1.70475783 30491
GSAT0220 (PRN E13)      
1 43567U 18060D   23170.15810302 -.00000094  00000+0  00000+0 0  9995
2 43567  57.2748  11.2808 0001548 325.3651  34.6649  1.70475864 30527
GSAT0223 (PRN E34)      
1 49809U 21116A   23170.59516984 -.00000093  00000+0  00000+0 0  9992
2 49809  57.2665  11.1653 0001888 131.7029 226.7986  1.70476040  9534
GSAT0224 (PRN E10)      
1 49810U 21116B   23169.22966069 -.00000095  00000+0  00000+0 0  9997
2 49810  57.2672  11.2002 0001928 109.5984 243.3379  1.70475988  9532
